FLOCK 4G-3              
1 62639U 25009AG  26203.18842041  .00010446  00000+0  36250-3 0  9996
2 62639  97.4014 285.0516 0003840 151.6106 208.5344 15.29965570 84259
FLOCK 4G-27             
1 62641U 25009AJ  26203.66614803  .00009730  00000+0  33852-3 0  9994
2 62641  97.3924 284.8657 0003201 151.4990 208.6426 15.29904486 84323
FLOCK 4G-29             
1 62642U 25009AK  26203.19343826  .00006872  00000+0  23972-3 0  9993
2 62642  97.4010 285.0161 0003972 148.1228 212.0254 15.29932158 84253
FLOCK 4G-22             
1 62645U 25009AN  26203.47389520  .00011886  00000+0  41320-3 0  9996
2 62645  97.3997 285.3272 0003532 145.2233 214.9239 15.29874923 84317
FLOCK 4G-25             
1 62646U 25009AP  26203.18492449  .00011594  00000+0  40035-3 0  9998
2 62646  97.4001 285.1215 0002989 146.9413 213.2015 15.30104328 84279
FLOCK 4G-23             
1 62647U 25009AQ  26203.20357205  .00048962  00000+0  14289-2 0  9992
2 62647  97.3913 284.9096 0003535 157.4119 202.7280 15.35171091 84298
FLOCK 4G-34             
1 62650U 25009AT  26203.19039855  .00010944  00000+0  38079-3 0  9995
2 62650  97.3953 284.6064 0002908 146.5385 213.6039 15.29870844 84260
FLOCK 4G-21             
1 62651U 25009AU  26203.48650367  .00041149  00000+0  12778-2 0  9993
2 62651  97.3981 285.9423 0003702 171.5133 188.6172 15.33244163 84361
FLOCK 4G-31             
1 62652U 25009AV  26203.22118758  .00010961  00000+0  38367-3 0  9990
2 62652  97.3958 284.6072 0002480 146.4128 213.7270 15.29676671 84265
FLOCK 4G-4              
1 62659U 25009BC  26203.70376508  .00041399  00000+0  13141-2 0  9990
2 62659  97.3930 284.9269 0005226 169.6850 190.4500 15.32535262141943
FLOCK 4G-6              
1 62660U 25009BD  26203.66634925  .00011084  00000+0  38316-3 0  9997
2 62660  97.3929 284.9039 0003623 175.9563 184.1707 15.30077069141929
FLOCK 4G-2              
1 62661U 25009BE  26203.46206244  .00011127  00000+0  38044-3 0  9991
2 62661  97.3997 285.3530 0004453 176.5801 183.5471 15.30430864141927
FLOCK 4G-5              
1 62663U 25009BG  26203.19282175  .00009376  00000+0  31557-3 0  9995
2 62663  97.4017 285.4924 0004074 160.6119 199.5278 15.30992295 84295
FLOCK 4G-1              
1 62666U 25009BK  26203.18605422  .00012466  00000+0  42765-3 0  9998
2 62666  97.4009 285.0567 0004694 174.9030 185.2259 15.30291314 84268
FLOCK 4G-14             
1 62667U 25009BL  26203.67708895  .00011236  00000+0  39110-3 0  9995
2 62667  97.4012 285.3375 0004978 169.2767 190.8581 15.29844201 84326
FLOCK 4G-10             
1 62670U 25009BP  26203.68750332  .00011529  00000+0  39996-3 0  9990
2 62670  97.3911 284.6366 0004484 184.4703 175.6499 15.29947640141964
FLOCK 4G-36             
1 62675U 25009BU  26203.87836534  .00012934  00000+0  44849-3 0  9999
2 62675  97.4002 285.4594 0005098 173.3347 186.7962 15.29931033 84352
FLOCK 4G-15             
1 62678U 25009BX  26203.55780098  .00016616  00000+0  57310-3 0  9998
2 62678  97.4005 285.2845 0005213 172.5349 187.5970 15.30048541141950
FLOCK 4G-30             
1 62679U 25009BY  26203.48117403  .00044167  00000+0  13235-2 0  9994
2 62679  97.3899 284.7659 0004889 175.1005 185.0287 15.34357272141956
FLOCK 4G-18             
1 62680U 25009BZ  26203.17745725  .00043617  00000+0  13826-2 0  9991
2 62680  97.3995 284.8485 0006714 188.1448 171.9686 15.32557736141892
FLOCK 4G-17             
1 62681U 25009CA  26203.64874887  .00012475  00000+0  42920-3 0  9992
2 62681  97.3912 284.8385 0004799 186.4948 173.6232 15.30196147141976
FLOCK 4G-33             
1 62685U 25009CE  26203.20604603  .00005812  00000+0  22978-3 0  9993
2 62685  97.3935 282.6822 0005308 188.1445 171.9708 15.25853548 84148
PELICAN-3               
1 65315U 25188A   26203.17735743  .00008847  00000+0  21400-3 0  9990
2 65315  97.1975 278.8136 0002170 112.7428 247.4049 15.41357187 50704
PELICAN-4               
1 65316U 25188B   26203.46076916  .00008475  00000+0  21193-3 0  9999
2 65316  97.1997 279.2366 0001882  77.9499 282.1959 15.40360963 50743
PELICAN-5               
1 66667U 25276B   26202.63736565  .00017924  00000+0  56168-3 0  9997
2 66667  97.4117 277.6194 0002644  57.6520 302.4977 15.33133291 35796
PELICAN-6               
1 66703U 25276AP  26202.64266504  .00004274  00000+0  14220-3 0  9997
2 66703  97.3687 277.5838 0002871  56.7613 303.3904 15.31697522 35809
FLOCK 4H-1              
1 66704U 25276AQ  26203.51484687  .00005745  00000+0  26284-3 0  9996
2 66704  97.4163 276.6474 0002682 154.6979 205.4388 15.20911663 35800
FLOCK 4H-2              
1 66705U 25276AR  26203.48723369  .00007143  00000+0  32337-3 0  9996
2 66705  97.4158 276.6714 0002074 145.3854 214.7517 15.21188827 35802
FLOCK 4H-3              
1 66706U 25276AS  26203.15239025  .00006635  00000+0  30842-3 0  9996
2 66706  97.4225 276.2632 0003084 214.7696 145.3338 15.20301623 35732
FLOCK 4H-4              
1 66707U 25276AT  26203.91350632  .00006855  00000+0  32033-3 0  9997
2 66707  97.4209 276.8757 0003694 217.5050 142.5928 15.20105982 35847
FLOCK 4H-5              
1 66708U 25276AU  26203.57265335  .00005981  00000+0  27306-3 0  9991
2 66708  97.4161 276.7260 0001773 134.0734 226.0648 15.20963670 35811
FLOCK 4H-6              
1 66709U 25276AV  26203.15944827  .00006864  00000+0  31563-3 0  9997
2 66709  97.4211 276.3643 0003204 179.7607 180.3631 15.20663837 35743
FLOCK 4H-7              
1 66710U 25276AW  26203.20807106  .00006801  00000+0  31482-3 0  9994
2 66710  97.4168 276.1632 0001013 225.4786 134.6367 15.20440658 35747
FLOCK 4H-8              
1 66711U 25276AX  26203.72492680  .00006912  00000+0  31883-3 0  9997
2 66711  97.4209 276.8266 0002294 225.2352 134.8697 15.20556438 35824
FLOCK 4H-9              
1 66712U 25276AY  26203.67144588  .00007370  00000+0  33673-3 0  9991
2 66712  97.4199 276.8711 0003183 184.7520 175.3686 15.20860031 35827
FLOCK 4H-10             
1 66713U 25276AZ  26203.63364911  .00006474  00000+0  30164-3 0  9998
2 66713  97.4176 276.5339 0003465 218.3867 141.7122 15.20228229 35804
FLOCK 4H-11             
1 66714U 25276BA  26203.44608894  .00015068  00000+0  63425-3 0  9994
2 66714  97.4180 276.9781 0002134 208.1161 151.9961 15.23463606 35819
FLOCK 4H-12             
1 66715U 25276BB  26203.59256992  .00007358  00000+0  33592-3 0  9994
2 66715  97.4172 276.7273 0002608 162.0617 198.0711 15.20886167 36123
FLOCK 4H-13             
1 66716U 25276BC  26203.16795888  .00005785  00000+0  26418-3 0  9991
2 66716  97.4207 276.4867 0002325 134.6085 225.5341 15.20973722 35756
FLOCK 4H-14             
1 66717U 25276BD  26203.45520831  .00006439  00000+0  28979-3 0  9999
2 66717  97.4189 276.8194 0002264 134.0744 226.0678 15.21430031 35055
FLOCK 4H-15             
1 66718U 25276BE  26203.20814991  .00006790  00000+0  31884-3 0  9995
2 66718  97.4201 276.1202 0002963 236.4433 123.6520 15.19943062 35735
FLOCK 4H-16             
1 66719U 25276BF  26203.64038486  .00006764  00000+0  31515-3 0  9993
2 66719  97.4220 276.6608 0003305 218.7833 141.3165 15.20215591 35801
FLOCK 4H-18             
1 66721U 25276BH  26203.44935926  .00006574  00000+0  30693-3 0  9994
2 66721  97.4163 276.2799 0002371 248.6173 111.4809 15.20156902 35777
FLOCK 4H-19             
1 66722U 25276BJ  26203.64029219  .00005709  00000+0  25797-3 0  9994
2 66722  97.4162 276.9436 0002913 135.2689 224.8783 15.21341042 35128
FLOCK 4H-20             
1 66723U 25276BK  26203.51009974  .00006687  00000+0  30009-3 0  9995
2 66723  97.4199 276.9269 0003530 151.3798 208.7632 15.21509079 35062
FLOCK 4H-21             
1 66724U 25276BL  26203.93815965  .00007722  00000+0  35014-3 0  9999
2 66724  97.4163 277.1640 0003396 149.8274 210.3158 15.21101473 35126
FLOCK 4H-22             
1 66725U 25276BM  26203.91947214  .00007508  00000+0  34559-3 0  9996
2 66725  97.4157 276.8498 0001236 230.9303 129.1822 15.20598974 35853
FLOCK 4H-23             
1 66726U 25276BN  26203.64627905  .00006445  00000+0  30113-3 0  9990
2 66726  97.4226 276.6673 0003605 209.9412 150.1618 15.20136794 35803
FLOCK 4H-24             
1 66727U 25276BP  26203.63052623  .00007198  00000+0  33483-3 0  9998
2 66727  97.4219 276.6815 0002782 227.1173 132.9829 15.20247509 35804
FLOCK 4H-25             
1 66728U 25276BQ  26203.16760245  .00006203  00000+0  28275-3 0  9992
2 66728  97.4176 276.3972 0002136 120.7620 239.3826 15.21004730 35038
FLOCK 4H-26             
1 66729U 25276BR  26203.66531597  .00006675  00000+0  31323-3 0  9995
2 66729  97.4172 276.4900 0003670 229.3019 130.7898 15.19969709 35800
FLOCK 4H-27             
1 66730U 25276BS  26203.92277883  .00006823  00000+0  31217-3 0  9998
2 66730  97.4153 276.9895 0001902 124.3041 235.8375 15.20838907 35864
FLOCK 4H-29             
1 66732U 25276BU  26203.51250317  .00006237  00000+0  29180-3 0  9993
2 66732  97.4154 276.3217 0001926 236.5377 123.5675 15.20106880 35788
FLOCK 4H-30             
1 66733U 25276BV  26203.63545258  .00006923  00000+0  32227-3 0  9996
2 66733  97.4214 276.6573 0003099 226.6443 133.4534 15.20235372 35807
FLOCK 4H-31             
1 66734U 25276BW  26203.46004628  .00006319  00000+0  29647-3 0  9990
2 66734  97.4152 276.2361 0002391 235.3394 124.7616 15.20003025 35774
FLOCK 4H-32             
1 66735U 25276BX  26203.44738178  .00006197  00000+0  28980-3 0  9996
2 66735  97.4211 276.4265 0003451 226.6221 133.4727 15.20122209 35772
FLOCK 4H-33             
1 66736U 25276BY  26203.66329838  .00006094  00000+0  27584-3 0  9995
2 66736  97.4205 277.0441 0003352 145.1929 214.9526 15.21251707 35835
FLOCK 4H-34             
1 66737U 25276BZ  26203.71776009  .00006611  00000+0  30195-3 0  9995
2 66737  97.4222 277.0186 0003331 151.7648 208.3769 15.20908030 35089
FLOCK 4H-35             
1 66738U 25276CA  26203.16664306  .00005953  00000+0  27142-3 0  9997
2 66738  97.4180 276.4112 0003081 137.4617 222.6858 15.21011581 35045
FLOCK 4H-36             
1 66739U 25276CB  26203.66683898  .00007147  00000+0  32731-3 0  9997
2 66739  97.4230 276.9610 0003115 163.3247 196.8092 15.20789407 35821
